ADRAS-J                 
1 58992U 24034A   24083.15457166  .00006762  00000+0  63390-3 0  9992
2 58992  98.2041  52.3767 0043933 333.7184  26.1805 14.93643511  5026
